IRIDIUM 921 [-]         
1 24873U 97034E   24036.39797391  .00026390  00000+0  87415-3 0  9997
2 24873  86.3873 353.3905 0007644  60.9720 299.2294 15.31142394454816
IRIDIUM 26 [-]          
1 24903U 97043A   24036.54173234  .00000647  00000+0  21523-3 0  9997
2 24903  86.3990 319.4367 0001996  82.5530 277.5894 14.36192737385298
IRIDIUM 22 [-]          
1 24907U 97043E   24036.49514275  .00000581  00000+0  19696-3 0  9994
2 24907  86.3998 322.5873 0002231  86.7180 273.4271 14.35090077385373
DUMMY MASS 1 [-]        
1 24925U 97048A   24036.41217176  .00000739  00000+0  81308-4 0  9996
2 24925  86.3368   5.3138 0009167 104.8733 255.3507 14.86030619431189
DUMMY MASS 2 [-]        
1 24926U 97048B   24036.42727177  .00000724  00000+0  80034-4 0  9994
2 24926  86.3367   6.8254 0009836 113.8925 246.3331 14.85790374430971
IRIDIUM 33 [-]          
1 24946U 97051C   24036.58408125  .00000498  00000+0  17082-3 0  9996
2 24946  86.3910 351.7434 0005731 260.6923  99.3625 14.34248334381401
IRIDIUM 28 [-]          
1 24948U 97051E   24036.42250881  .00000677  00000+0  22411-3 0  9996
2 24948  86.4001 350.3513 0001793  84.3458 275.7944 14.36489275382369
